HAWK-A                  
1 43765U 18099H   26068.67628545  .00008617  00000+0  36104-3 0  9995
2 43765  97.4051 122.2425 0034260 275.5523  84.1807 15.23231043397949
STARLINK-34222          
1 64191U 25113X   26068.44120513  .00027535  00000+0  93845-3 0  9998
2 64191  53.1598  92.5258 0001336  80.5572 279.5580 15.30196643 44984
